UWE-3                   
1 39446U 13066AG  26087.85559123  .00004336  00000+0  37942-3 0  9996
2 39446  97.8615  43.4680 0048413 226.6001 133.1185 14.96371134665565
